$$SOE
2461295.500000000, A.D. 2026-Sep-12 00:00:00.0000, -2.230226126891159E+08, 3.458839135367004E+08, 4.441878314138754E+07,
2461302.500000000, A.D. 2026-Sep-19 00:00:00.0000, -2.319556618913317E+08, 3.398601578880599E+08, 4.578377344181524E+07,
2461309.500000000, A.D. 2026-Sep-26 00:00:00.0000, -2.407302361534016E+08, 3.336040851320025E+08, 4.711741659239806E+07,
2461316.500000000, A.D. 2026-Oct-03 00:00:00.0000, -2.493404172200867E+08, 3.271200915127771E+08, 4.841881570743750E+07,
2461323.500000000, A.D. 2026-Oct-10 00:00:00.0000, -2.577804067419578E+08, 3.204127271197703E+08, 4.968709732650749E+07,
2461330.500000000, A.D. 2026-Oct-17 00:00:00.0000, -2.660445302795165E+08, 3.134866923365424E+08, 5.092141201045963E+07,
2461337.500000000, A.D. 2026-Oct-24 00:00:00.0000, -2.741272412067587E+08, 3.063468340904559E+08, 5.212093490781455E+07,
2461344.500000000, A.D. 2026-Oct-31 00:00:00.0000, -2.820231244123654E+08, 2.989981418406262E+08, 5.328486627664046E+07,
2461351.500000000, A.D. 2026-Nov-07 00:00:00.0000, -2.897268994564993E+08, 2.914457433825350E+08, 5.441243193654335E+07,
2461358.500000000, A.D. 2026-Nov-14 00:00:00.0000, -2.972334229799372E+08, 2.836949013607634E+08, 5.550288370465122E+07,
2461365.500000000, A.D. 2026-Nov-21 00:00:00.0000, -3.045376921765320E+08, 2.757510111767148E+08, 5.655550003761087E+07,
2461372.500000000, A.D. 2026-Nov-28 00:00:00.0000, -3.116348503259363E+08, 2.676195972904415E+08, 5.756958672573526E+07,
2461379.500000000, A.D. 2026-Dec-05 00:00:00.0000, -3.185201907618820E+08, 2.593063072646571E+08, 5.854447725352323E+07,
2461386.500000000, A.D. 2026-Dec-12 00:00:00.0000, -3.251891591088437E+08, 2.508169066632549E+08, 5.947953306551905E+07,
2461393.500000000, A.D. 2026-Dec-19 00:00:00.0000, -3.316373556761132E+08, 2.421572748166068E+08, 6.037414391189606E+07,
2461400.500000000, A.D. 2026-Dec-26 00:00:00.0000, -3.378605381505964E+08, 2.333334005932042E+08, 6.122772821651302E+07,
2461407.500000000, A.D. 2027-Jan-02 00:00:00.0000, -3.438546243091319E+08, 2.243513779922395E+08, 6.203973342652975E+07,
2461414.500000000, A.D. 2027-Jan-09 00:00:00.0000, -3.496156946298556E+08, 2.152174015809137E+08, 6.280963633401439E+07,
2461421.500000000, A.D. 2027-Jan-16 00:00:00.0000, -3.551399947648423E+08, 2.059377617872742E+08, 6.353694336632033E+07,
2461428.500000000, A.D. 2027-Jan-23 00:00:00.0000, -3.604239378281329E+08, 1.965188400101255E+08, 6.422119083736442E+07,
2461435.500000000, A.D. 2027-Jan-30 00:00:00.0000, -3.654641063143987E+08, 1.869671035003934E+08, 6.486194513898767E+07,
2461442.500000000, A.D. 2027-Feb-06 00:00:00.0000, -3.702572532277780E+08, 1.772891003582960E+08, 6.545880286209257E+07,
2461449.500000000, A.D. 2027-Feb-13 00:00:00.0000, -3.748003028849158E+08, 1.674914558717944E+08, 6.601139099030812E+07,
2461456.500000000, A.D. 2027-Feb-20 00:00:00.0000, -3.790903537594979E+08, 1.575808694118368E+08, 6.651936731898903E+07,
2461463.500000000, A.D. 2027-Feb-27 00:00:00.0000, -3.831246819737871E+08, 1.475641086783374E+08, 6.698242070915604E+07,
2461470.500000000, A.D. 2027-Mar-06 00:00:00.0000, -3.869007424149866E+08, 1.374480032243834E+08, 6.740027105566472E+07,
2461477.500000000, A.D. 2027-Mar-13 00:00:00.0000, -3.904161690737581E+08, 1.272394393083583E+08, 6.777266928247716E+07,
2461484.500000000, A.D. 2027-Mar-20 00:00:00.0000, -3.936687757367328E+08, 1.169453552406536E+08, 6.809939740023923E+07,
2461491.500000000, A.D. 2027-Mar-27 00:00:00.0000, -3.966565568337693E+08, 1.065727366796531E+08, 6.838026856324743E+07,
2461498.500000000, A.D. 2027-Apr-03 00:00:00.0000, -3.993776882388088E+08, 9.612861183293703E+07, 6.861512710383147E+07,
2461505.500000000, A.D. 2027-Apr-10 00:00:00.0000, -4.018305279648736E+08, 8.562004659036106E+07, 6.880384854105005E+07,
2461512.500000000, A.D. 2027-Apr-17 00:00:00.0000, -4.040136167330645E+08, 7.505413957856417E+07, 6.894633956117253E+07,
2461519.500000000, A.D. 2027-Apr-24 00:00:00.0000, -4.059256783380755E+08, 6.443801707879756E+07, 6.904253795817122E+07,
2461526.500000000, A.D. 2027-May-01 00:00:00.0000, -4.075656195119250E+08, 5.377882783987044E+07, 6.909241250941689E+07,
2461533.500000000, A.D. 2027-May-08 00:00:00.0000, -4.089325289793175E+08, 4.308373853820342E+07, 6.909596281973875E+07,
2461540.500000000, A.D. 2027-May-15 00:00:00.0000, -4.100256772024645E+08, 3.235993084115107E+07, 6.905321934915660E+07,
2461547.500000000, A.D. 2027-May-22 00:00:00.0000, -4.108445183822771E+08, 2.161459748442450E+07, 6.896424355643377E+07,
2461554.500000000, A.D. 2027-May-29 00:00:00.0000, -4.113886913635805E+08, 1.085493589962479E+07, 6.882912773155576E+07,
2461561.500000000, A.D. 2027-Jun-05 00:00:00.0000, -4.116580185590131E+08, 8.814252818019316E+04, 6.864799469200331E+07,
2461568.500000000, A.D. 2027-Jun-12 00:00:00.0000, -4.116525048981436E+08, -1.067859174488442E+07, 6.842099756189710E+07,
2461575.500000000, A.D. 2027-Jun-19 00:00:00.0000, -4.113723371354433E+08, -2.143808597130756E+07, 6.814831958841302E+07,
2461582.500000000, A.D. 2027-Jun-26 00:00:00.0000, -4.108178832412352E+08, -3.218317359274668E+07, 6.783017394937462E+07,
2461589.500000000, A.D. 2027-Jul-03 00:00:00.0000, -4.099896917458211E+08, -4.290670695528783E+07, 6.746680354130261E+07,
2461596.500000000, A.D. 2027-Jul-10 00:00:00.0000, -4.088884910016212E+08, -5.360156187389237E+07, 6.705848074580826E+07,
2461603.500000000, A.D. 2027-Jul-17 00:00:00.0000, -4.075151883286969E+08, -6.426064228333864E+07, 6.660550716837163E+07,
2461610.500000000, A.D. 2027-Jul-24 00:00:00.0000, -4.058708688891086E+08, -7.487688503630535E+07, 6.610821333060186E+07,
2461617.500000000, A.D. 2027-Jul-31 00:00:00.0000, -4.039567938805153E+08, -8.544326461094716E+07, 6.556695829805188E+07,
2461624.500000000, A.D. 2027-Aug-07 00:00:00.0000, -4.017743982511927E+08, -9.595279657425629E+07, 6.498212935654579E+07,
2461631.500000000, A.D. 2027-Aug-14 00:00:00.0000, -3.993252902392251E+08, -1.063985400534164E+08, 6.435414192773102E+07,
2461638.500000000, A.D. 2027-Aug-21 00:00:00.0000, -3.966112521215547E+08, -1.167736025789872E+08, 6.368343939302865E+07,
2461645.500000000, A.D. 2027-Aug-28 00:00:00.0000, -3.936342387466856E+08, -1.270711460946501E+08, 6.297049261072712E+07,
2461652.500000000, A.D. 2027-Sep-04 00:00:00.0000, -3.903963750341106E+08, -1.372843916274367E+08, 6.221579943937399E+07,
2461659.500000000, A.D. 2027-Sep-11 00:00:00.0000, -3.868999538360634E+08, -1.474066232769244E+08, 6.141988434105945E+07,
2461666.500000000, A.D. 2027-Sep-18 00:00:00.0000, -3.831474340296956E+08, -1.574311921714967E+08, 6.058329799895456E+07,
2461673.500000000, A.D. 2027-Sep-25 00:00:00.0000, -3.791414386121182E+08, -1.673515204664610E+08, 5.970661692148033E+07,
2461680.500000000, A.D. 2027-Oct-02 00:00:00.0000, -3.748847527230242E+08, -1.771611053536601E+08, 5.879044302792770E+07,
2461687.500000000, A.D. 2027-Oct-09 00:00:00.0000, -3.703803215717157E+08, -1.868535230860671E+08, 5.783540321264495E+07,
2461694.500000000, A.D. 2027-Oct-16 00:00:00.0000, -3.656312482064227E+08, -1.964224330729944E+08, 5.684214887769869E+07,
2461701.500000000, A.D. 2027-Oct-23 00:00:00.0000, -3.606407908695296E+08, -2.058615820524075E+08, 5.581135541054368E+07,
2461708.500000000, A.D. 2027-Oct-30 00:00:00.0000, -3.554123595684420E+08, -2.151648077292915E+08, 5.474372162318906E+07,
2461715.500000000, A.D. 2027-Nov-06 00:00:00.0000, -3.499495130288057E+08, -2.243260407496679E+08, 5.363996935232422E+07,
2461722.500000000, A.D. 2027-Nov-13 00:00:00.0000, -3.442559580174137E+08, -2.333393070845374E+08, 5.250084323298927E+07,
2461729.500000000, A.D. 2027-Nov-20 00:00:00.0000, -3.383355481356555E+08, -2.421987330090083E+08, 5.132711020141201E+07,
2461736.500000000, A.D. 2027-Nov-27 00:00:00.0000, -3.321922804690044E+08, -2.508985497106885E+08, 5.011955882150184E+07,
2461743.500000000, A.D. 2027-Dec-04 00:00:00.0000, -3.258302921172139E+08, -2.594330966106056E+08, 4.887899869543745E+07,
2461750.500000000, A.D. 2027-Dec-11 00:00:00.0000, -3.192538571556022E+08, -2.677968243584817E+08, 4.760625992992128E+07,
2461757.500000000, A.D. 2027-Dec-18 00:00:00.0000, -3.124673837527640E+08, -2.759842978409087E+08, 4.630219260520442E+07,
2461764.500000000, A.D. 2027-Dec-25 00:00:00.0000, -3.054754112943843E+08, -2.839901992047508E+08, 4.496766623317661E+07,
2461771.500000000, A.D. 2028-Jan-01 00:00:00.0000, -2.982826074740835E+08, -2.918093308809186E+08, 4.360356920251311E+07,
$$EOE